OBJECT_NAME,OBJECT_ID,EPOCH,MEAN_MOTION,ECCENTRICITY,INCLINATION,RA_OF_ASC_NODE,ARG_OF_PERICENTER,MEAN_ANOMALY,EPHEMERIS_TYPE,CLASSIFICATION_TYPE,NORAD_CAT_ID,ELEMENT_SET_NO,REV_AT_EPOCH,BSTAR,MEAN_MOTION_DOT,MEAN_MOTION_DDOT
TJS-12,2024-246A,2026-06-03T21:08:54.748608,1.00274193,.00024241,0.7001,297.8965,89.8790,328.3254,0,U,62374,999,543,0,-.218E-5,0
NUVIEW ALPHA,2024-252B,2026-06-03T21:46:06.183264,1.00272172,.00011317,0.0573,33.2172,12.7352,89.8542,0,U,62455,999,369,0,-.204E-5,0
AGILA,2024-252C,2026-06-03T21:10:24.604608,1.00270514,.00011348,0.0477,136.5808,314.9874,270.5252,0,U,62456,999,502,0,-.17E-5,0
NUVIEW BRAVO,2024-252D,2026-06-03T11:30:00.211968,1.00270889,.0001996,0.0753,137.8768,335.8772,227.5746,0,U,62457,999,365,0,-.203E-5,0
THURAYA-4,2025-001A,2026-06-03T22:22:18.618816,1.00272859,.00001956,0.0278,63.8285,39.4882,168.9659,0,U,62483,999,404,0,.151E-5,0
SHIJIAN-25 (SJ-25),2025-002A,2026-06-03T17:31:51.935808,1.00281646,.0051546,5.0812,61.2456,172.8146,48.3391,0,U,62485,999,522,0,-.339E-5,0
TJS-14,2025-017A,2026-06-03T22:14:56.719104,1.00269787,.00005031,0.8131,294.6874,271.9968,37.8139,0,U,62804,999,513,0,.127E-5,0
SPAINSAT NG I,2025-021A,2026-06-03T22:17:58.140960,1.00271124,.00002146,0.0166,329.4044,116.3474,170.1303,0,U,62852,999,385,0,.163E-5,0
QZS-6 (MICHIBIKI-6),2025-023A,2026-06-03T20:52:48.792288,1.00268753,.00026012,0.0184,24.6137,51.9462,219.4297,0,U,62876,999,481,0,-.22E-5,0
ZHONGXING-10R,2025-036A,2026-06-03T20:58:33.242304,1.00272679,.00033017,0.0531,254.2405,244.2386,179.0300,0,U,63075,999,482,0,-.34E-5,0
TJS-15,2025-045A,2026-06-03T17:34:36.571008,1.00270021,.0005568,0.2813,85.2729,299.9874,224.9861,0,U,63157,999,462,0,-.253E-5,0
TIANLIAN 2-04,2025-062A,2026-06-03T22:32:32.637696,1.00270749,.00314239,4.4090,274.6299,10.9091,25.0606,0,U,63361,999,447,0,-.123E-5,0
TJS-16,2025-064A,2026-06-03T15:55:16.131360,1.00272690,.0003818,1.0632,81.5310,294.0276,275.9734,0,U,63397,999,425,0,-.93E-6,0
TJS-17,2025-073A,2026-06-03T16:06:02.861280,1.00272521,.0002604,1.0290,82.8055,301.6214,273.7230,0,U,63524,999,415,0,-.58E-6,0
TIANLIAN 2-05,2025-084A,2026-06-03T22:15:34.158816,1.00273550,.00036614,4.4853,279.9858,143.6673,183.0296,0,U,63662,999,424,0,.137E-5,0
TJS-19,2025-097A,2026-06-03T17:42:06.098976,1.00271334,.0001784,3.3094,317.2183,231.8983,109.9058,0,U,63924,999,400,0,-.264E-5,0
CHINASAT 3B,2025-106A,2026-06-02T16:09:29.173248,1.00271300,.00028466,0.0342,84.7176,22.8897,193.2201,0,U,64062,999,391,0,-.33E-6,0
SXM-10,2025-122A,2026-06-03T21:36:29.604960,1.00270786,.00018702,0.0219,26.8981,351.4829,81.9288,0,U,64290,999,355,0,-.5E-7,0
COSMOS 2589,2025-131A,2026-06-03T18:22:51.127392,1.00270027,.0001603,0.0530,63.9284,88.0699,113.9489,0,U,64467,999,342,0,-.279E-5,0
CHINASAT 9C,2025-132A,2026-06-03T20:53:18.743712,1.00270231,.00031471,0.0369,262.1727,176.4254,219.2540,0,U,64470,999,401,0,-.235E-5,0
MTG-S1,2025-143A,2026-06-03T22:08:42.317664,1.00271550,.00012168,0.6149,336.0817,38.0195,206.9775,0,U,64723,999,328,0,-.2E-6,0
DROR 1,2025-148A,2026-06-03T22:08:34.830240,1.00271699,.00031053,0.0089,344.6847,46.8121,189.0192,0,U,64784,999,316,0,-.22E-6,0
SHIYAN-29,2025-196A,2026-06-03T02:27:21.921120,1.00259086,.0010482,28.8063,18.7146,170.5571,193.5595,0,U,65486,999,274,0,-.263E-5,0
NUSANTARA LIMA (NUSANTARA 5),2025-205A,2026-06-03T20:59:18.170304,1.00267471,.00004045,0.0362,128.9308,348.8733,202.1999,0,U,65588,999,258,0,-.345E-5,0
TJS-20,2025-238A,2026-06-03T20:44:55.029120,1.00271836,.0004844,5.4998,299.6051,152.7632,173.5587,0,U,66142,999,219,0,.36E-6,0
CMS-03 (GSAT-7R),2025-249B,2026-06-03T19:05:30.070752,1.00272582,.00028918,0.0358,261.8044,140.8879,209.9157,0,U,66311,999,221,0,-.65E-6,0
VIASAT-3 F2,2025-261A,2026-06-03T21:47:13.575264,1.00271106,.00002111,0.0481,148.1050,306.3193,45.7444,0,U,66454,999,266,0,-.221E-5,0
SHIJIAN-28 (SJ-28),2025-277A,2026-06-03T21:00:03.098304,1.00270963,.00003469,4.5730,272.3445,12.5809,39.3321,0,U,66549,999,202,0,-.348E-5,0
TJS-22,2025-290A,2026-06-03T21:52:38.867808,1.00271402,.00020494,1.5605,286.3925,334.4612,26.1186,0,U,66990,999,189,0,.6E-7,0
TJS-23,2025-306A,2026-06-03T15:20:27.281760,1.00272073,.00049199,5.6184,297.5604,162.2943,197.8240,0,U,67226,999,175,0,.28E-6,0
FENGYUN 4C,2025-312A,2026-06-04T00:30:21.978144,1.00270825,.0000672,0.0142,93.6132,66.0667,233.3855,0,U,67246,999,164,0,-.311E-5,0
SHIJIAN-29A (SJ-29A),2025-315A,2026-06-03T22:30:40.317696,1.00270298,.00033894,3.3639,95.4366,17.9322,189.9610,0,U,67302,999,148,0,-.57E-6,0
