TJS-12                  
1 62374U 24246A   26154.88118922 -.00000218  00000+0  00000+0 0  9997
2 62374   0.7001 297.8965 0002424  89.8790 328.3254  1.00274193  5437
NUVIEW ALPHA            
1 62455U 24252B   26154.90701601 -.00000204  00000+0  00000+0 0  9994
2 62455   0.0573  33.2172 0001131  12.7352  89.8542  1.00272172  3699
AGILA                   
1 62456U 24252C   26154.88222922 -.00000170  00000+0  00000+0 0  9998
2 62456   0.0477 136.5808 0001134 314.9874 270.5252  1.00270514  5029
NUVIEW BRAVO            
1 62457U 24252D   26154.47916912 -.00000203  00000+0  00000+0 0  9990
2 62457   0.0753 137.8768 0001996 335.8772 227.5746  1.00270889  3653
THURAYA-4               
1 62483U 25001A   26154.93215994  .00000151  00000+0  00000+0 0  9996
2 62483   0.0278  63.8285 0000195  39.4882 168.9659  1.00272859  4049
SHIJIAN-25 (SJ-25)      
1 62485U 25002A   26154.73046222 -.00000339  00000+0  00000+0 0  9992
2 62485   5.0812  61.2456 0051546 172.8146  48.3391  1.00281646  5222
TJS-14                  
1 62804U 25017A   26154.92704536  .00000127  00000+0  00000+0 0  9997
2 62804   0.8131 294.6874 0000503 271.9968  37.8139  1.00269787  5135
SPAINSAT NG I           
1 62852U 25021A   26154.92914515  .00000163  00000+0  00000+0 0  9995
2 62852   0.0166 329.4044 0000214 116.3474 170.1303  1.00271124  3856
QZS-6 (MICHIBIKI-6)     
1 62876U 25023A   26154.87000917 -.00000220  00000+0  00000+0 0  9994
2 62876   0.0184  24.6137 0002601  51.9462 219.4297  1.00268753  4812
ZHONGXING-10R           
1 63075U 25036A   26154.87399586 -.00000340  00000+0  00000+0 0  9996
2 63075   0.0531 254.2405 0003301 244.2386 179.0300  1.00272679  4828
TJS-15                  
1 63157U 25045A   26154.73236772 -.00000253  00000+0  00000+0 0  9992
2 63157   0.2813  85.2729 0005568 299.9874 224.9861  1.00270021  4620
TIANLIAN 2-04           
1 63361U 25062A   26154.93926664 -.00000123  00000+0  00000+0 0  9992
2 63361   4.4090 274.6299 0031423  10.9091  25.0606  1.00270749  4474
TJS-16                  
1 63397U 25064A   26154.66338115 -.00000093  00000+0  00000+0 0  9997
2 63397   1.0632  81.5310 0003818 294.0276 275.9734  1.00272690  4255
TJS-17                  
1 63524U 25073A   26154.67086645 -.00000058  00000+0  00000+0 0  9999
2 63524   1.0290  82.8055 0002604 301.6214 273.7230  1.00272521  4155
TIANLIAN 2-05           
1 63662U 25084A   26154.92747869  .00000137  00000+0  00000+0 0  9991
2 63662   4.4853 279.9858 0003661 143.6673 183.0296  1.00273550  4245
TJS-19                  
1 63924U 25097A   26154.73757059 -.00000264  00000+0  00000+0 0  9999
2 63924   3.3094 317.2183 0001784 231.8983 109.9058  1.00271334  4001
CHINASAT 3B             
1 64062U 25106A   26153.67325432 -.00000033  00000+0  00000+0 0  9996
2 64062   0.0342  84.7176 0002846  22.8897 193.2201  1.00271300  3913
SXM-10                  
1 64290U 25122A   26154.90034265 -.00000005  00000+0  00000+0 0  9994
2 64290   0.0219  26.8981 0001870 351.4829  81.9288  1.00270786  3557
COSMOS 2589             
1 64467U 25131A   26154.76586953 -.00000279  00000+0  00000+0 0  9993
2 64467   0.0530  63.9284 0001603  88.0699 113.9489  1.00270027  3422
CHINASAT 9C             
1 64470U 25132A   26154.87035583 -.00000235  00000+0  00000+0 0  9990
2 64470   0.0369 262.1727 0003147 176.4254 219.2540  1.00270231  4016
MTG-S1                  
1 64723U 25143A   26154.92271201 -.00000020  00000+0  00000+0 0  9990
2 64723   0.6149 336.0817 0001216  38.0195 206.9775  1.00271550  3288
DROR 1                  
1 64784U 25148A   26154.92262535 -.00000022  00000+0  00000+0 0  9994
2 64784   0.0089 344.6847 0003105  46.8121 189.0192  1.00271699  3160
SHIYAN-29               
1 65486U 25196A   26154.10233705 -.00000263  00000+0  00000+0 0  9991
2 65486  28.8063  18.7146 0010482 170.5571 193.5595  1.00259086  2747
NUSANTARA LIMA (NUSANT*)
1 65588U 25205A   26154.87451586 -.00000345  00000+0  00000+0 0  9999
2 65588   0.0362 128.9308 0000404 348.8733 202.1999  1.00267471  2585
TJS-20                  
1 66142U 25238A   26154.86452580  .00000036  00000+0  00000+0 0  9992
2 66142   5.4998 299.6051 0004844 152.7632 173.5587  1.00271836  2190
CMS-03 (GSAT-7R)        
1 66311U 25249B   26154.79548693 -.00000065  00000+0  00000+0 0  9998
2 66311   0.0358 261.8044 0002891 140.8879 209.9157  1.00272582  2212
VIASAT-3 F2             
1 66454U 25261A   26154.90779601 -.00000221  00000+0  00000+0 0  9992
2 66454   0.0481 148.1050 0000211 306.3193  45.7444  1.00271106  2668
SHIJIAN-28 (SJ-28)      
1 66549U 25277A   26154.87503586 -.00000348  00000+0  00000+0 0  9997
2 66549   4.5730 272.3445 0000346  12.5809  39.3321  1.00270963  2029
TJS-22                  
1 66990U 25290A   26154.91156097  .00000006  00000+0  00000+0 0  9998
2 66990   1.5605 286.3925 0002049 334.4612  26.1186  1.00271402  1891
TJS-23                  
1 67226U 25306A   26154.63920465  .00000028  00000+0  00000+0 0  9990
2 67226   5.6184 297.5604 0004919 162.2943 197.8240  1.00272073  1758
FENGYUN 4C              
1 67246U 25312A   26155.02108771 -.00000311  00000+0  00000+0 0  9997
2 67246   0.0142  93.6132 0000672  66.0667 233.3855  1.00270825  1649
SHIJIAN-29A (SJ-29A)    
1 67302U 25315A   26154.93796664 -.00000057  00000+0  00000+0 0  9993
2 67302   3.3639  95.4366 0003389  17.9322 189.9610  1.00270298  1480
